ONEWEB-0628             
1 55169U 23004AF  26115.19148550  .00000079  00000+0  18487-3 0  9999
2 55169  87.8997   1.1836 0001762 104.2430 255.8895 13.12444377161089
ONEWEB-0629             
1 55170U 23004AG  26115.26191654 -.00000017  00000+0 -77535-4 0  9996
2 55170  87.9184  16.3871 0001992  87.0390 273.0969 13.17647616160613
ONEWEB-0631             
1 55171U 23004AH  26115.13943546  .00000111  00000+0  24793-3 0  9998
2 55171  87.9204 345.9866 0001252  75.4977 284.6294 13.18638934162685
ONEWEB-0709             
1 55172U 23004AJ  26115.25437484 -.00000484  00000+0 -14025-2 0  9992
2 55172  87.8920  31.6038 0001829  50.4714 309.6575 13.11415920158936
ONEWEB-0710             
1 55173U 23004AK  26115.20033690 -.00000014  00000+0 -68172-4 0  9992
2 55173  87.9186  16.3942 0001651  82.4626 277.6693 13.17648977160604
ONEWEB-0711             
1 55174U 23004AL  26115.22556635  .00000391  00000+0  10686-2 0  9995
2 55174  87.8920  31.5963 0001409 100.5762 259.5525 13.11415925158896
ONEWEB-0713             
1 55175U 23004AM  26115.24420700 -.00000378  00000+0 -11038-2 0  9990
2 55175  87.8927  31.5926 0001552  89.2586 270.8720 13.11415979158880
ONEWEB-0715             
1 55176U 23004AN  26115.23912280 -.00000090  00000+0 -29027-3 0  9998
2 55176  87.8931  31.5935 0001438  56.5737 303.5528 13.11415611158922
ONEWEB-0716             
1 55177U 23004AP  26115.19358315  .00000121  00000+0  27769-3 0  9991
2 55177  87.9190  16.3970 0002042  77.0140 283.1220 13.17648094160608
ONEWEB-0717             
1 55178U 23004AQ  26115.25264509  .00000132  00000+0  30655-3 0  9990
2 55178  87.9193  16.3691 0001303  97.7357 262.3922 13.17648442160661
ONEWEB-0719             
1 55179U 23004AR  26115.26276973  .00000100  00000+0  22356-3 0  9994
2 55179  87.9195  16.3479 0001994  82.0794 278.0564 13.17648273160619
ONEWEB-0530             
1 55796U 23029A   26114.90920587 -.00010068  00000+0 -24838-1 0  9994
2 55796  87.9134 285.1068 0002017 101.0312 259.1049 13.20728350154117
ONEWEB-0534             
1 55797U 23029B   26115.19957199 -.00000253  00000+0 -65386-3 0  9996
2 55797  87.9133 285.0481 0001872  92.9621 267.1726 13.20770720154157
ONEWEB-0556             
1 55798U 23029C   26115.20591334  .00000051  00000+0  92303-4 0  9998
2 55798  87.9131 285.0478 0002566 101.8013 258.3408 13.20770926154155
ONEWEB-0562             
1 55799U 23029D   26114.96598866 -.00000157  00000+0 -41748-3 0  9993
2 55799  87.9134 285.0764 0002225 116.3870 243.7492 13.20771108154122
ONEWEB-0563             
1 55800U 23029E   26115.03545251  .00000021  00000+0  19147-4 0  9992
2 55800  87.9129 285.0928 0001990  92.1357 268.0005 13.20772207154121
