[{"OBJECT_NAME":"ONEWEB-0628","OBJECT_ID":"2023-004AF","EPOCH":"2026-04-25T04:35:44.347200","MEAN_MOTION":13.12444377,"ECCENTRICITY":0.0001762,"INCLINATION":87.8997,"RA_OF_ASC_NODE":1.1836,"ARG_OF_PERICENTER":104.243,"MEAN_ANOMALY":255.8895,"EPHEMERIS_TYPE":0,"CLASSIFICATION_TYPE":"U","NORAD_CAT_ID":55169,"ELEMENT_SET_NO":999,"REV_AT_EPOCH":16108,"BSTAR":0.00018487,"MEAN_MOTION_DOT":7.9e-07,"MEAN_MOTION_DDOT":0.0},{"OBJECT_NAME":"ONEWEB-0629","OBJECT_ID":"2023-004AG","EPOCH":"2026-04-25T06:17:09.589056","MEAN_MOTION":13.17647616,"ECCENTRICITY":0.0001992,"INCLINATION":87.9184,"RA_OF_ASC_NODE":16.3871,"ARG_OF_PERICENTER":87.039,"MEAN_ANOMALY":273.0969,"EPHEMERIS_TYPE":0,"CLASSIFICATION_TYPE":"U","NORAD_CAT_ID":55170,"ELEMENT_SET_NO":999,"REV_AT_EPOCH":16061,"BSTAR":-7.7535e-05,"MEAN_MOTION_DOT":-1.7e-07,"MEAN_MOTION_DDOT":0.0},{"OBJECT_NAME":"ONEWEB-0631","OBJECT_ID":"2023-004AH","EPOCH":"2026-04-25T03:20:47.223744","MEAN_MOTION":13.18638934,"ECCENTRICITY":0.0001252,"INCLINATION":87.9204,"RA_OF_ASC_NODE":345.9866,"ARG_OF_PERICENTER":75.4977,"MEAN_ANOMALY":284.6294,"EPHEMERIS_TYPE":0,"CLASSIFICATION_TYPE":"U","NORAD_CAT_ID":55171,"ELEMENT_SET_NO":999,"REV_AT_EPOCH":16268,"BSTAR":0.00024793,"MEAN_MOTION_DOT":1.11e-06,"MEAN_MOTION_DDOT":0.0},{"OBJECT_NAME":"ONEWEB-0709","OBJECT_ID":"2023-004AJ","EPOCH":"2026-04-25T06:06:17.986176","MEAN_MOTION":13.1141592,"ECCENTRICITY":0.0001829,"INCLINATION":87.892,"RA_OF_ASC_NODE":31.6038,"ARG_OF_PERICENTER":50.4714,"MEAN_ANOMALY":309.6575,"EPHEMERIS_TYPE":0,"CLASSIFICATION_TYPE":"U","NORAD_CAT_ID":55172,"ELEMENT_SET_NO":999,"REV_AT_EPOCH":15893,"BSTAR":-0.0014025,"MEAN_MOTION_DOT":-4.84e-06,"MEAN_MOTION_DDOT":0.0},{"OBJECT_NAME":"ONEWEB-0710","OBJECT_ID":"2023-004AK","EPOCH":"2026-04-25T04:48:29.108160","MEAN_MOTION":13.17648977,"ECCENTRICITY":0.0001651,"INCLINATION":87.9186,"RA_OF_ASC_NODE":16.3942,"ARG_OF_PERICENTER":82.4626,"MEAN_ANOMALY":277.6693,"EPHEMERIS_TYPE":0,"CLASSIFICATION_TYPE":"U","NORAD_CAT_ID":55173,"ELEMENT_SET_NO":999,"REV_AT_EPOCH":16060,"BSTAR":-6.8172e-05,"MEAN_MOTION_DOT":-1.4e-07,"MEAN_MOTION_DDOT":0.0},{"OBJECT_NAME":"ONEWEB-0711","OBJECT_ID":"2023-004AL","EPOCH":"2026-04-25T05:24:48.932640","MEAN_MOTION":13.11415925,"ECCENTRICITY":0.0001409,"INCLINATION":87.892,"RA_OF_ASC_NODE":31.5963,"ARG_OF_PERICENTER":100.5762,"MEAN_ANOMALY":259.5525,"EPHEMERIS_TYPE":0,"CLASSIFICATION_TYPE":"U","NORAD_CAT_ID":55174,"ELEMENT_SET_NO":999,"REV_AT_EPOCH":15889,"BSTAR":0.0010686,"MEAN_MOTION_DOT":3.91e-06,"MEAN_MOTION_DDOT":0.0},{"OBJECT_NAME":"ONEWEB-0713","OBJECT_ID":"2023-004AM","EPOCH":"2026-04-25T05:51:39.484800","MEAN_MOTION":13.11415979,"ECCENTRICITY":0.0001552,"INCLINATION":87.8927,"RA_OF_ASC_NODE":31.5926,"ARG_OF_PERICENTER":89.2586,"MEAN_ANOMALY":270.872,"EPHEMERIS_TYPE":0,"CLASSIFICATION_TYPE":"U","NORAD_CAT_ID":55175,"ELEMENT_SET_NO":999,"REV_AT_EPOCH":15888,"BSTAR":-0.0011038,"MEAN_MOTION_DOT":-3.78e-06,"MEAN_MOTION_DDOT":0.0},{"OBJECT_NAME":"ONEWEB-0715","OBJECT_ID":"2023-004AN","EPOCH":"2026-04-25T05:44:20.209920","MEAN_MOTION":13.11415611,"ECCENTRICITY":0.0001438,"INCLINATION":87.8931,"RA_OF_ASC_NODE":31.5935,"ARG_OF_PERICENTER":56.5737,"MEAN_ANOMALY":303.5528,"EPHEMERIS_TYPE":0,"CLASSIFICATION_TYPE":"U","NORAD_CAT_ID":55176,"ELEMENT_SET_NO":999,"REV_AT_EPOCH":15892,"BSTAR":-0.00029026999999999997,"MEAN_MOTION_DOT":-9e-07,"MEAN_MOTION_DDOT":0.0},{"OBJECT_NAME":"ONEWEB-0716","OBJECT_ID":"2023-004AP","EPOCH":"2026-04-25T04:38:45.584160","MEAN_MOTION":13.17648094,"ECCENTRICITY":0.0002042,"INCLINATION":87.919,"RA_OF_ASC_NODE":16.397,"ARG_OF_PERICENTER":77.014,"MEAN_ANOMALY":283.122,"EPHEMERIS_TYPE":0,"CLASSIFICATION_TYPE":"U","NORAD_CAT_ID":55177,"ELEMENT_SET_NO":999,"REV_AT_EPOCH":16060,"BSTAR":0.00027769,"MEAN_MOTION_DOT":1.21e-06,"MEAN_MOTION_DDOT":0.0},{"OBJECT_NAME":"ONEWEB-0717","OBJECT_ID":"2023-004AQ","EPOCH":"2026-04-25T06:03:48.535776","MEAN_MOTION":13.17648442,"ECCENTRICITY":0.0001303,"INCLINATION":87.9193,"RA_OF_ASC_NODE":16.3691,"ARG_OF_PERICENTER":97.7357,"MEAN_ANOMALY":262.3922,"EPHEMERIS_TYPE":0,"CLASSIFICATION_TYPE":"U","NORAD_CAT_ID":55178,"ELEMENT_SET_NO":999,"REV_AT_EPOCH":16066,"BSTAR":0.00030655,"MEAN_MOTION_DOT":1.32e-06,"MEAN_MOTION_DDOT":0.0},{"OBJECT_NAME":"ONEWEB-0719","OBJECT_ID":"2023-004AR","EPOCH":"2026-04-25T06:18:23.304672","MEAN_MOTION":13.17648273,"ECCENTRICITY":0.0001994,"INCLINATION":87.9195,"RA_OF_ASC_NODE":16.3479,"ARG_OF_PERICENTER":82.0794,"MEAN_ANOMALY":278.0564,"EPHEMERIS_TYPE":0,"CLASSIFICATION_TYPE":"U","NORAD_CAT_ID":55179,"ELEMENT_SET_NO":999,"REV_AT_EPOCH":16061,"BSTAR":0.00022356,"MEAN_MOTION_DOT":1e-06,"MEAN_MOTION_DDOT":0.0},{"OBJECT_NAME":"ONEWEB-0530","OBJECT_ID":"2023-029A","EPOCH":"2026-04-24T21:49:15.387168","MEAN_MOTION":13.2072835,"ECCENTRICITY":0.0002017,"INCLINATION":87.9134,"RA_OF_ASC_NODE":285.1068,"ARG_OF_PERICENTER":101.0312,"MEAN_ANOMALY":259.1049,"EPHEMERIS_TYPE":0,"CLASSIFICATION_TYPE":"U","NORAD_CAT_ID":55796,"ELEMENT_SET_NO":999,"REV_AT_EPOCH":15411,"BSTAR":-0.024838,"MEAN_MOTION_DOT":-0.00010068,"MEAN_MOTION_DDOT":0.0},{"OBJECT_NAME":"ONEWEB-0534","OBJECT_ID":"2023-029B","EPOCH":"2026-04-25T04:47:23.019936","MEAN_MOTION":13.2077072,"ECCENTRICITY":0.0001872,"INCLINATION":87.9133,"RA_OF_ASC_NODE":285.0481,"ARG_OF_PERICENTER":92.9621,"MEAN_ANOMALY":267.1726,"EPHEMERIS_TYPE":0,"CLASSIFICATION_TYPE":"U","NORAD_CAT_ID":55797,"ELEMENT_SET_NO":999,"REV_AT_EPOCH":15415,"BSTAR":-0.00065386,"MEAN_MOTION_DOT":-2.53e-06,"MEAN_MOTION_DDOT":0.0},{"OBJECT_NAME":"ONEWEB-0556","OBJECT_ID":"2023-029C","EPOCH":"2026-04-25T04:56:30.912576","MEAN_MOTION":13.20770926,"ECCENTRICITY":0.0002566,"INCLINATION":87.9131,"RA_OF_ASC_NODE":285.0478,"ARG_OF_PERICENTER":101.8013,"MEAN_ANOMALY":258.3408,"EPHEMERIS_TYPE":0,"CLASSIFICATION_TYPE":"U","NORAD_CAT_ID":55798,"ELEMENT_SET_NO":999,"REV_AT_EPOCH":15415,"BSTAR":9.2303e-05,"MEAN_MOTION_DOT":5.1e-07,"MEAN_MOTION_DDOT":0.0},{"OBJECT_NAME":"ONEWEB-0562","OBJECT_ID":"2023-029D","EPOCH":"2026-04-24T23:11:01.420224","MEAN_MOTION":13.20771108,"ECCENTRICITY":0.0002225,"INCLINATION":87.9134,"RA_OF_ASC_NODE":285.0764,"ARG_OF_PERICENTER":116.387,"MEAN_ANOMALY":243.7492,"EPHEMERIS_TYPE":0,"CLASSIFICATION_TYPE":"U","NORAD_CAT_ID":55799,"ELEMENT_SET_NO":999,"REV_AT_EPOCH":15412,"BSTAR":-0.00041748,"MEAN_MOTION_DOT":-1.57e-06,"MEAN_MOTION_DDOT":0.0},{"OBJECT_NAME":"ONEWEB-0563","OBJECT_ID":"2023-029E","EPOCH":"2026-04-25T00:51:03.096864","MEAN_MOTION":13.20772207,"ECCENTRICITY":0.000199,"INCLINATION":87.9129,"RA_OF_ASC_NODE":285.0928,"ARG_OF_PERICENTER":92.1357,"MEAN_ANOMALY":268.0005,"EPHEMERIS_TYPE":0,"CLASSIFICATION_TYPE":"U","NORAD_CAT_ID":55800,"ELEMENT_SET_NO":999,"REV_AT_EPOCH":15412,"BSTAR":1.9147e-05,"MEAN_MOTION_DOT":2.1e-07,"MEAN_MOTION_DDOT":0.0}]